start=new Date('2021-09-16T00:00:00.000Z').valueOf();
sats=[{"OBJECT_TYPE":"PAYLOAD","DECAY_DATE":null,"OBJECT_ID":"2020-088T","MEAN_MOTION_DDOT":"0.0000000000000","SITE":"AFETR","CENTER_NAME":"EARTH","TLE_LINE2":"2 47139  53.0550  90.2306 0002246 101.6522 258.4719 15.06394165 45202","SEMIMAJOR_AXIS":"6925.366","REV_AT_EPOCH":"4520","ECCENTRICITY":"0.00022460","LAUNCH_DATE":"2020-11-25","RA_OF_ASC_NODE":"90.2306","OBJECT_NAME":"STARLINK-1852","CLASSIFICATION_TYPE":"U","APOAPSIS":"548.787","RCS_SIZE":"LARGE","ARG_OF_PERICENTER":"101.6522","ELEMENT_SET_NO":"999","BSTAR":"-0.00003491200000","TLE_LINE1":"1 47139U 20088T   21258.83992348 -.00000802  00000-0 -34912-4 0  9991","PERIOD":"95.593","COUNTRY_CODE":"US","EPHEMERIS_TYPE":"0","PERIAPSIS":"545.676","GP_ID":"184788310","REF_FRAME":"TEME","MEAN_ANOMALY":"258.4719","MEAN_MOTION_DOT":"-0.00000802","MEAN_ELEMENT_THEORY":"SGP4","NORAD_CAT_ID":"47139","TIME_SYSTEM":"UTC","MEAN_MOTION":"15.06394165","INCLINATION":"53.0550","FILE":"3116597","EPOCH":"2021-09-15T20:09:29.388672"},{"OBJECT_ID":"2020-088U","DECAY_DATE":null,"MEAN_MOTION_DDOT":"0.0000000000000","OBJECT_TYPE":"PAYLOAD","ECCENTRICITY":"0.00013830","LAUNCH_DATE":"2020-11-25","RA_OF_ASC_NODE":"66.4424","CLASSIFICATION_TYPE":"U","OBJECT_NAME":"STARLINK-1853","SITE":"AFETR","CENTER_NAME":"EARTH","TLE_LINE2":"2 47140  53.0547  66.4424 0001383  29.5319 330.5776 15.71480840 45549","REV_AT_EPOCH":"4554","SEMIMAJOR_AXIS":"6732.801","ARG_OF_PERICENTER":"29.5319","ELEMENT_SET_NO":"999","BSTAR":"0.00017340000000","COUNTRY_CODE":"US","TLE_LINE1":"1 47140U 20088U   21258.83328388  .00022080  00000-0  17340-3 0  9995","PERIOD":"91.633","APOAPSIS":"355.597","RCS_SIZE":"LARGE","NORAD_CAT_ID":"47140","MEAN_MOTION":"15.71480840","TIME_SYSTEM":"UTC","INCLINATION":"53.0547","FILE":"3116597","EPOCH":"2021-09-15T19:59:55.727232","EPHEMERIS_TYPE":"0","PERIAPSIS":"353.735","REF_FRAME":"TEME","GP_ID":"184788558","MEAN_ANOMALY":"330.5776","MEAN_MOTION_DOT":"0.00022080","MEAN_ELEMENT_THEORY":"SGP4"},{"TLE_LINE2":"2 47141  53.0549  75.1159 0001490 114.1292 245.9853 15.06391516 45425","SITE":"AFETR","CENTER_NAME":"EARTH","REV_AT_EPOCH":"4542","SEMIMAJOR_AXIS":"6925.375","LAUNCH_DATE":"2020-11-25","RA_OF_ASC_NODE":"75.1159","ECCENTRICITY":"0.00014900","OBJECT_NAME":"STARLINK-1854","CLASSIFICATION_TYPE":"U","OBJECT_TYPE":"PAYLOAD","MEAN_MOTION_DDOT":"0.0000000000000","OBJECT_ID":"2020-088V","DECAY_DATE":null,"REF_FRAME":"TEME","GP_ID":"184787309","MEAN_ANOMALY":"245.9853","EPHEMERIS_TYPE":"0","PERIAPSIS":"546.208","MEAN_MOTION_DOT":"-0.00000648","MEAN_ELEMENT_THEORY":"SGP4","FILE":"3116597","MEAN_MOTION":"15.06391516","NORAD_CAT_ID":"47141","TIME_SYSTEM":"UTC","INCLINATION":"53.0549","EPOCH":"2021-09-15T20:26:06.305568","APOAPSIS":"548.271","RCS_SIZE":"LARGE","ELEMENT_SET_NO":"999","BSTAR":"-0.00002461100000","ARG_OF_PERICENTER":"114.1292","PERIOD":"95.593","TLE_LINE1":"1 47141U 20088V   21258.85146187 -.00000648  00000-0 -24611-4 0  9991","COUNTRY_CODE":"US"},{"MEAN_MOTION":"15.06394999","NORAD_CAT_ID":"47143","TIME_SYSTEM":"UTC","INCLINATION":"53.0547","FILE":"3116597","EPOCH":"2021-09-15T21:35:06.140832","EPHEMERIS_TYPE":"0","PERIAPSIS":"546.056","MEAN_ANOMALY":"273.2851","GP_ID":"184788059","REF_FRAME":"TEME","MEAN_MOTION_DOT":"0.00000938","MEAN_ELEMENT_THEORY":"SGP4","ARG_OF_PERICENTER":"86.8332","ELEMENT_SET_NO":"999","BSTAR":"0.00008188300000","COUNTRY_CODE":"US","TLE_LINE1":"1 47143U 20088X   21258.89937663  .00000938  00000-0  81883-4 0  9998","PERIOD":"95.592","APOAPSIS":"548.401","RCS_SIZE":"LARGE","ECCENTRICITY":"0.00016930","LAUNCH_DATE":"2020-11-25","RA_OF_ASC_NODE":"74.9548","OBJECT_NAME":"STARLINK-1856","CLASSIFICATION_TYPE":"U","SITE":"AFETR","CENTER_NAME":"EARTH","TLE_LINE2":"2 47143  53.0547  74.9548 0001693  86.8332 273.2851 15.06394999 45429","REV_AT_EPOCH":"4542","SEMIMAJOR_AXIS":"6925.364","OBJECT_ID":"2020-088X","DECAY_DATE":null,"MEAN_MOTION_DDOT":"0.0000000000000","OBJECT_TYPE":"PAYLOAD"},{"OBJECT_TYPE":"PAYLOAD","MEAN_MOTION_DDOT":"0.0000000000000","OBJECT_ID":"2020-088Y","DECAY_DATE":null,"TLE_LINE2":"2 47144  53.0563  65.0215 0001715  98.4775 261.6408 15.06390510 45564","SITE":"AFETR","CENTER_NAME":"EARTH","REV_AT_EPOCH":"4556","SEMIMAJOR_AXIS":"6925.378","LAUNCH_DATE":"2020-11-25","RA_OF_ASC_NODE":"65.0215","ECCENTRICITY":"0.00017150","CLASSIFICATION_TYPE":"U","OBJECT_NAME":"STARLINK-1857","APOAPSIS":"548.430","RCS_SIZE":"LARGE","ELEMENT_SET_NO":"999","BSTAR":"-0.00002800800000","ARG_OF_PERICENTER":"98.4775","COUNTRY_CODE":"US","TLE_LINE1":"1 47144U 20088Y   21258.88555498 -.00000699  00000-0 -28008-4 0  9996","PERIOD":"95.593","MEAN_ANOMALY":"261.6408","GP_ID":"184788811","REF_FRAME":"TEME","EPHEMERIS_TYPE":"0","PERIAPSIS":"546.055","MEAN_MOTION_DOT":"-0.00000699","MEAN_ELEMENT_THEORY":"SGP4","FILE":"3116597","NORAD_CAT_ID":"47144","MEAN_MOTION":"15.06390510","TIME_SYSTEM":"UTC","INCLINATION":"53.0563","EPOCH":"2021-09-15T21:15:11.950272"},{"EPOCH":"2021-09-15T17:53:29.981760","FILE":"3116597","NORAD_CAT_ID":"47145","MEAN_MOTION":"15.06402887","TIME_SYSTEM":"UTC","INCLINATION":"53.0540","MEAN_MOTION_DOT":"0.00001852","MEAN_ELEMENT_THEORY":"SGP4","REF_FRAME":"TEME","GP_ID":"184789059","MEAN_ANOMALY":"326.9885","EPHEMERIS_TYPE":"0","PERIAPSIS":"542.293","COUNTRY_CODE":"US","TLE_LINE1":"1 47145U 20088Z   21258.74548590  .00001852  00000-0  14329-3 0  9997","PERIOD":"95.592","ELEMENT_SET_NO":"999","BSTAR":"0.00014329000000","ARG_OF_PERICENTER":"33.1548","RCS_SIZE":"LARGE","APOAPSIS":"552.116","CLASSIFICATION_TYPE":"U","OBJECT_NAME":"STARLINK-1858","LAUNCH_DATE":"2020-11-25","RA_OF_ASC_NODE":"65.6473","ECCENTRICITY":"0.00070920","SEMIMAJOR_AXIS":"6925.340","REV_AT_EPOCH":"4554","TLE_LINE2":"2 47145  53.0540  65.6473 0007092  33.1548 326.9885 15.06402887 45543","SITE":"AFETR","CENTER_NAME":"EARTH","MEAN_MOTION_DDOT":"0.0000000000000","DECAY_DATE":null,"OBJECT_ID":"2020-088Z","OBJECT_TYPE":"PAYLOAD"},{"OBJECT_ID":"2020-088AA","DECAY_DATE":null,"MEAN_MOTION_DDOT":"0.0000000000000","OBJECT_TYPE":"PAYLOAD","OBJECT_NAME":"STARLINK-1859","CLASSIFICATION_TYPE":"U","ECCENTRICITY":"0.00020570","LAUNCH_DATE":"2020-11-25","RA_OF_ASC_NODE":"95.2238","SEMIMAJOR_AXIS":"6925.339","REV_AT_EPOCH":"4513","CENTER_NAME":"EARTH","SITE":"AFETR","TLE_LINE2":"2 47146  53.0554  95.2238 0002057  89.5654 270.5571 15.06403145 45135","COUNTRY_CODE":"US","TLE_LINE1":"1 47146U 20088AA  21258.84130569  .00001271  00000-0  10420-3 0  9995","PERIOD":"95.592","ARG_OF_PERICENTER":"89.5654","BSTAR":"0.00010420000000","ELEMENT_SET_NO":"999","RCS_SIZE":"LARGE","APOAPSIS":"548.628","EPOCH":"2021-09-15T20:11:28.811616","INCLINATION":"53.0554","NORAD_CAT_ID":"47146","MEAN_MOTION":"15.06403145","TIME_SYSTEM":"UTC","FILE":"3116597","MEAN_ELEMENT_THEORY":"SGP4","MEAN_MOTION_DOT":"0.00001271","PERIAPSIS":"545.779","EPHEMERIS_TYPE":"0","MEAN_ANOMALY":"270.5571","GP_ID":"184787810","REF_FRAME":"TEME"},{"MEAN_MOTION_DOT":"0.00001399","MEAN_ELEMENT_THEORY":"SGP4","EPHEMERIS_TYPE":"0","PERIAPSIS":"545.865","REF_FRAME":"TEME","GP_ID":"184787559","MEAN_ANOMALY":"278.7561","EPOCH":"2021-09-15T20:14:09.843072","NORAD_CAT_ID":"47147","MEAN_MOTION":"15.06394000","TIME_SYSTEM":"UTC","INCLINATION":"53.0567","FILE":"3116597","RCS_SIZE":"LARGE","APOAPSIS":"548.599","TLE_LINE1":"1 47147U 20088AB  21258.84316948  .00001399  00000-0  11285-3 0  9994","PERIOD":"95.593","COUNTRY_CODE":"US","ARG_OF_PERICENTER":"81.3652","ELEMENT_SET_NO":"999","BSTAR":"0.00011285000000","REV_AT_EPOCH":"4528","SEMIMAJOR_AXIS":"6925.367","SITE":"AFETR","CENTER_NAME":"EARTH","TLE_LINE2":"2 47147  53.0567  85.2284 0001974  81.3652 278.7561 15.06394000 45289","CLASSIFICATION_TYPE":"U","OBJECT_NAME":"STARLINK-1860","ECCENTRICITY":"0.00019740","LAUNCH_DATE":"2020-11-25","RA_OF_ASC_NODE":"85.2284","OBJECT_TYPE":"PAYLOAD","OBJECT_ID":"2020-088AB","DECAY_DATE":null,"MEAN_MOTION_DDOT":"0.0000000000000"},{"TLE_LINE1":"1 47148U 20088AC  21258.81828417  .00001014  00000-0  86983-4 0  9993","COUNTRY_CODE":"US","PERIOD":"95.592","ARG_OF_PERICENTER":"92.8640","BSTAR":"0.00008698300000","ELEMENT_SET_NO":"999","RCS_SIZE":"LARGE","APOAPSIS":"548.424","EPOCH":"2021-09-15T19:38:19.752288","INCLINATION":"53.0563","NORAD_CAT_ID":"47148","TIME_SYSTEM":"UTC","MEAN_MOTION":"15.06397129","FILE":"3116597","MEAN_ELEMENT_THEORY":"SGP4","MEAN_MOTION_DOT":"0.00001014","PERIAPSIS":"546.021","EPHEMERIS_TYPE":"0","GP_ID":"184788311","REF_FRAME":"TEME","MEAN_ANOMALY":"267.2548","DECAY_DATE":null,"OBJECT_ID":"2020-088AC","MEAN_MOTION_DDOT":"0.0000000000000","OBJECT_TYPE":"PAYLOAD","CLASSIFICATION_TYPE":"U","OBJECT_NAME":"STARLINK-1861","ECCENTRICITY":"0.00017350","LAUNCH_DATE":"2020-11-25","RA_OF_ASC_NODE":"75.3201","REV_AT_EPOCH":"4541","SEMIMAJOR_AXIS":"6925.357","CENTER_NAME":"EARTH","SITE":"AFETR","TLE_LINE2":"2 47148  53.0563  75.3201 0001735  92.8640 267.2548 15.06397129 45412"},{"RCS_SIZE":"LARGE","APOAPSIS":"548.610","COUNTRY_CODE":"US","TLE_LINE1":"1 47149U 20088AD  21258.78050618 -.00000377  00000-0 -63826-5 0  9995","PERIOD":"95.593","ARG_OF_PERICENTER":"95.8345","BSTAR":"-0.00000638260000","ELEMENT_SET_NO":"999","MEAN_ELEMENT_THEORY":"SGP4","MEAN_MOTION_DOT":"-0.00000377","PERIAPSIS":"545.878","EPHEMERIS_TYPE":"0","GP_ID":"184788559","REF_FRAME":"TEME","MEAN_ANOMALY":"264.2869","EPOCH":"2021-09-15T18:43:55.733952","INCLINATION":"53.0561","NORAD_CAT_ID":"47149","MEAN_MOTION":"15.06390061","TIME_SYSTEM":"UTC","FILE":"3116597","OBJECT_TYPE":"PAYLOAD","DECAY_DATE":null,"OBJECT_ID":"2020-088AD","MEAN_MOTION_DDOT":"0.0000000000000","REV_AT_EPOCH":"4600","SEMIMAJOR_AXIS":"6925.379","CENTER_NAME":"EARTH","SITE":"AFETR","TLE_LINE2":"2 47149  53.0561  85.5066 0001973  95.8345 264.2869 15.06390061 46009","OBJECT_NAME":"STARLINK-1862","CLASSIFICATION_TYPE":"U","ECCENTRICITY":"0.00019730","LAUNCH_DATE":"2020-11-25","RA_OF_ASC_NODE":"85.5066"}];
